ONEWEB-0035             
1 45143U 20008N   25338.67734234 -.00000532  00000+0 -15591-2 0  9998
2 45143  87.8802  75.0615 0001600 100.2662 259.8646 13.10369676282464
ONEWEB-0036             
1 45144U 20008P   25338.66738256 -.00000830  00000+0 -24148-2 0  9995
2 45144  87.8811  75.0209 0001664 115.3785 244.7514 13.10370919282893
ONEWEB-0038             
1 45145U 20008Q   25338.68842446  .00000592  00000+0  16347-2 0  9990
2 45145  87.8868  59.7927 0003328  91.0588 269.0922 13.11416308284835
ONEWEB-0039             
1 45146U 20008R   25338.64997869  .00000722  00000+0  20319-2 0  9996
2 45146  87.8818  75.0401 0002001 117.5899 242.5432 13.10376682282687
ONEWEB-0040             
1 45147U 20008S   25338.56697810  .00000706  00000+0  19857-2 0  9998
2 45147  87.8811  75.0830 0001748 104.6865 255.4456 13.10374124282378
ONEWEB-0043             
1 45149U 20008U   25337.72841052  .00035397  00000+0  10065+0 0  9999
2 45149  87.8812  75.2368 0000432 171.2372 188.8764 13.10598875282586
ONEWEB-0044             
1 45150U 20008V   25338.67318947 -.00000315  00000+0 -93935-3 0  9993
2 45150  87.8807  75.0346 0001701 113.9918 246.1387 13.10368887283000
ONEWEB-0045             
1 45151U 20008W   25338.68318101  .00000575  00000+0  15872-2 0  9996
2 45151  87.8880  59.7764 0001803 104.8362 255.2966 13.11417749284918
ONEWEB-0047             
1 45152U 20008X   25338.66656685 -.00000046  00000+0 -16677-3 0  9997
2 45152  87.8803  75.0455 0001646 109.7642 250.3663 13.10370164282727
ONEWEB-0048             
1 45153U 20008Y   25338.66159419  .00000301  00000+0  82638-3 0  9993
2 45153  87.8796  75.0735 0000973 100.7793 259.3443 13.10347377282332
ONEWEB-0049             
1 45154U 20008Z   25338.51135831  .00000153  00000+0  40278-3 0  9999
2 45154  87.8801  75.0923 0001348 122.5967 237.5291 13.10368687282539
ONEWEB-0051             
1 45155U 20008AA  25338.68149825  .00000547  00000+0  15084-2 0  9999
2 45155  87.8861  59.8001 0001646 102.8289 257.3023 13.11416080285596
ONEWEB-0052             
1 45156U 20008AB  25338.65910081  .00000317  00000+0  87067-3 0  9993
2 45156  87.8813  75.0226 0001360 121.5819 238.5441 13.10369659282469
ONEWEB-0053             
1 45157U 20008AC  25338.56531615  .00000596  00000+0  16721-2 0  9993
2 45157  87.8809  75.0879 0001926 107.6838 252.4499 13.10374431282421
ONEWEB-0054             
1 45158U 20008AD  25338.67651580 -.00000505  00000+0 -14829-2 0  9999
2 45158  87.8807  75.0377 0001499 105.7911 254.3382 13.10370510282559
ONEWEB-0056             
1 45159U 20008AE  25338.65744404  .00000422  00000+0  11723-2 0  9992
2 45159  87.8806  75.0401 0001413 107.3519 252.7763 13.10369858282700
ONEWEB-0057             
1 45160U 20008AF  25338.66490236  .00000069  00000+0  16032-3 0  9992
2 45160  87.8804  75.0517 0001642 111.9668 248.1634 13.10368109282870
