[{"OBJECT_NAME":"ONEWEB-0035","OBJECT_ID":"2020-008N","EPOCH":"2025-12-04T16:15:22.378176","MEAN_MOTION":13.10369676,"ECCENTRICITY":0.00016,"INCLINATION":87.8802,"RA_OF_ASC_NODE":75.0615,"ARG_OF_PERICENTER":100.2662,"MEAN_ANOMALY":259.8646,"EPHEMERIS_TYPE":0,"CLASSIFICATION_TYPE":"U","NORAD_CAT_ID":45143,"ELEMENT_SET_NO":999,"REV_AT_EPOCH":28246,"BSTAR":-0.0015591,"MEAN_MOTION_DOT":-5.32e-6,"MEAN_MOTION_DDOT":0},{"OBJECT_NAME":"ONEWEB-0036","OBJECT_ID":"2020-008P","EPOCH":"2025-12-04T16:01:01.853184","MEAN_MOTION":13.10370919,"ECCENTRICITY":0.0001664,"INCLINATION":87.8811,"RA_OF_ASC_NODE":75.0209,"ARG_OF_PERICENTER":115.3785,"MEAN_ANOMALY":244.7514,"EPHEMERIS_TYPE":0,"CLASSIFICATION_TYPE":"U","NORAD_CAT_ID":45144,"ELEMENT_SET_NO":999,"REV_AT_EPOCH":28289,"BSTAR":-0.0024148,"MEAN_MOTION_DOT":-8.3e-6,"MEAN_MOTION_DDOT":0},{"OBJECT_NAME":"ONEWEB-0038","OBJECT_ID":"2020-008Q","EPOCH":"2025-12-04T16:31:19.873344","MEAN_MOTION":13.11416308,"ECCENTRICITY":0.0003328,"INCLINATION":87.8868,"RA_OF_ASC_NODE":59.7927,"ARG_OF_PERICENTER":91.0588,"MEAN_ANOMALY":269.0922,"EPHEMERIS_TYPE":0,"CLASSIFICATION_TYPE":"U","NORAD_CAT_ID":45145,"ELEMENT_SET_NO":999,"REV_AT_EPOCH":28483,"BSTAR":0.0016347,"MEAN_MOTION_DOT":5.92e-6,"MEAN_MOTION_DDOT":0},{"OBJECT_NAME":"ONEWEB-0039","OBJECT_ID":"2020-008R","EPOCH":"2025-12-04T15:35:58.158816","MEAN_MOTION":13.10376682,"ECCENTRICITY":0.0002001,"INCLINATION":87.8818,"RA_OF_ASC_NODE":75.0401,"ARG_OF_PERICENTER":117.5899,"MEAN_ANOMALY":242.5432,"EPHEMERIS_TYPE":0,"CLASSIFICATION_TYPE":"U","NORAD_CAT_ID":45146,"ELEMENT_SET_NO":999,"REV_AT_EPOCH":28268,"BSTAR":0.0020319,"MEAN_MOTION_DOT":7.22e-6,"MEAN_MOTION_DDOT":0},{"OBJECT_NAME":"ONEWEB-0040","OBJECT_ID":"2020-008S","EPOCH":"2025-12-04T13:36:26.907840","MEAN_MOTION":13.10374124,"ECCENTRICITY":0.0001748,"INCLINATION":87.8811,"RA_OF_ASC_NODE":75.083,"ARG_OF_PERICENTER":104.6865,"MEAN_ANOMALY":255.4456,"EPHEMERIS_TYPE":0,"CLASSIFICATION_TYPE":"U","NORAD_CAT_ID":45147,"ELEMENT_SET_NO":999,"REV_AT_EPOCH":28237,"BSTAR":0.0019857,"MEAN_MOTION_DOT":7.06e-6,"MEAN_MOTION_DDOT":0},{"OBJECT_NAME":"ONEWEB-0043","OBJECT_ID":"2020-008U","EPOCH":"2025-12-03T17:28:54.668928","MEAN_MOTION":13.10598875,"ECCENTRICITY":4.329e-5,"INCLINATION":87.8812,"RA_OF_ASC_NODE":75.2368,"ARG_OF_PERICENTER":171.2372,"MEAN_ANOMALY":188.8764,"EPHEMERIS_TYPE":0,"CLASSIFICATION_TYPE":"U","NORAD_CAT_ID":45149,"ELEMENT_SET_NO":999,"REV_AT_EPOCH":28258,"BSTAR":0.10064749,"MEAN_MOTION_DOT":0.00035397,"MEAN_MOTION_DDOT":0},{"OBJECT_NAME":"ONEWEB-0044","OBJECT_ID":"2020-008V","EPOCH":"2025-12-04T16:09:23.570208","MEAN_MOTION":13.10368887,"ECCENTRICITY":0.0001701,"INCLINATION":87.8807,"RA_OF_ASC_NODE":75.0346,"ARG_OF_PERICENTER":113.9918,"MEAN_ANOMALY":246.1387,"EPHEMERIS_TYPE":0,"CLASSIFICATION_TYPE":"U","NORAD_CAT_ID":45150,"ELEMENT_SET_NO":999,"REV_AT_EPOCH":28300,"BSTAR":-0.00093935,"MEAN_MOTION_DOT":-3.15e-6,"MEAN_MOTION_DDOT":0},{"OBJECT_NAME":"ONEWEB-0045","OBJECT_ID":"2020-008W","EPOCH":"2025-12-04T16:23:46.839264","MEAN_MOTION":13.11417749,"ECCENTRICITY":0.0001803,"INCLINATION":87.888,"RA_OF_ASC_NODE":59.7764,"ARG_OF_PERICENTER":104.8362,"MEAN_ANOMALY":255.2966,"EPHEMERIS_TYPE":0,"CLASSIFICATION_TYPE":"U","NORAD_CAT_ID":45151,"ELEMENT_SET_NO":999,"REV_AT_EPOCH":28491,"BSTAR":0.0015872,"MEAN_MOTION_DOT":5.75e-6,"MEAN_MOTION_DDOT":0},{"OBJECT_NAME":"ONEWEB-0047","OBJECT_ID":"2020-008X","EPOCH":"2025-12-04T15:59:51.375840","MEAN_MOTION":13.10370164,"ECCENTRICITY":0.0001646,"INCLINATION":87.8803,"RA_OF_ASC_NODE":75.0455,"ARG_OF_PERICENTER":109.7642,"MEAN_ANOMALY":250.3663,"EPHEMERIS_TYPE":0,"CLASSIFICATION_TYPE":"U","NORAD_CAT_ID":45152,"ELEMENT_SET_NO":999,"REV_AT_EPOCH":28272,"BSTAR":-0.00016677,"MEAN_MOTION_DOT":-4.6e-7,"MEAN_MOTION_DDOT":0},{"OBJECT_NAME":"ONEWEB-0048","OBJECT_ID":"2020-008Y","EPOCH":"2025-12-04T15:52:41.738016","MEAN_MOTION":13.10347377,"ECCENTRICITY":9.73e-5,"INCLINATION":87.8796,"RA_OF_ASC_NODE":75.0735,"ARG_OF_PERICENTER":100.7793,"MEAN_ANOMALY":259.3443,"EPHEMERIS_TYPE":0,"CLASSIFICATION_TYPE":"U","NORAD_CAT_ID":45153,"ELEMENT_SET_NO":999,"REV_AT_EPOCH":28233,"BSTAR":0.00082638,"MEAN_MOTION_DOT":3.01e-6,"MEAN_MOTION_DDOT":0},{"OBJECT_NAME":"ONEWEB-0049","OBJECT_ID":"2020-008Z","EPOCH":"2025-12-04T12:16:21.357984","MEAN_MOTION":13.10368687,"ECCENTRICITY":0.0001348,"INCLINATION":87.8801,"RA_OF_ASC_NODE":75.0923,"ARG_OF_PERICENTER":122.5967,"MEAN_ANOMALY":237.5291,"EPHEMERIS_TYPE":0,"CLASSIFICATION_TYPE":"U","NORAD_CAT_ID":45154,"ELEMENT_SET_NO":999,"REV_AT_EPOCH":28253,"BSTAR":0.00040278,"MEAN_MOTION_DOT":1.53e-6,"MEAN_MOTION_DDOT":0},{"OBJECT_NAME":"ONEWEB-0051","OBJECT_ID":"2020-008AA","EPOCH":"2025-12-04T16:21:21.448800","MEAN_MOTION":13.1141608,"ECCENTRICITY":0.0001646,"INCLINATION":87.8861,"RA_OF_ASC_NODE":59.8001,"ARG_OF_PERICENTER":102.8289,"MEAN_ANOMALY":257.3023,"EPHEMERIS_TYPE":0,"CLASSIFICATION_TYPE":"U","NORAD_CAT_ID":45155,"ELEMENT_SET_NO":999,"REV_AT_EPOCH":28559,"BSTAR":0.0015084,"MEAN_MOTION_DOT":5.47e-6,"MEAN_MOTION_DDOT":0},{"OBJECT_NAME":"ONEWEB-0052","OBJECT_ID":"2020-008AB","EPOCH":"2025-12-04T15:49:06.309984","MEAN_MOTION":13.10369659,"ECCENTRICITY":0.000136,"INCLINATION":87.8813,"RA_OF_ASC_NODE":75.0226,"ARG_OF_PERICENTER":121.5819,"MEAN_ANOMALY":238.5441,"EPHEMERIS_TYPE":0,"CLASSIFICATION_TYPE":"U","NORAD_CAT_ID":45156,"ELEMENT_SET_NO":999,"REV_AT_EPOCH":28246,"BSTAR":0.00087067,"MEAN_MOTION_DOT":3.17e-6,"MEAN_MOTION_DDOT":0},{"OBJECT_NAME":"ONEWEB-0053","OBJECT_ID":"2020-008AC","EPOCH":"2025-12-04T13:34:03.315360","MEAN_MOTION":13.10374431,"ECCENTRICITY":0.0001926,"INCLINATION":87.8809,"RA_OF_ASC_NODE":75.0879,"ARG_OF_PERICENTER":107.6838,"MEAN_ANOMALY":252.4499,"EPHEMERIS_TYPE":0,"CLASSIFICATION_TYPE":"U","NORAD_CAT_ID":45157,"ELEMENT_SET_NO":999,"REV_AT_EPOCH":28242,"BSTAR":0.0016721,"MEAN_MOTION_DOT":5.96e-6,"MEAN_MOTION_DDOT":0},{"OBJECT_NAME":"ONEWEB-0054","OBJECT_ID":"2020-008AD","EPOCH":"2025-12-04T16:14:10.965120","MEAN_MOTION":13.1037051,"ECCENTRICITY":0.0001499,"INCLINATION":87.8807,"RA_OF_ASC_NODE":75.0377,"ARG_OF_PERICENTER":105.7911,"MEAN_ANOMALY":254.3382,"EPHEMERIS_TYPE":0,"CLASSIFICATION_TYPE":"U","NORAD_CAT_ID":45158,"ELEMENT_SET_NO":999,"REV_AT_EPOCH":28255,"BSTAR":-0.0014829,"MEAN_MOTION_DOT":-5.05e-6,"MEAN_MOTION_DDOT":0},{"OBJECT_NAME":"ONEWEB-0056","OBJECT_ID":"2020-008AE","EPOCH":"2025-12-04T15:46:43.165056","MEAN_MOTION":13.10369858,"ECCENTRICITY":0.0001413,"INCLINATION":87.8806,"RA_OF_ASC_NODE":75.0401,"ARG_OF_PERICENTER":107.3519,"MEAN_ANOMALY":252.7763,"EPHEMERIS_TYPE":0,"CLASSIFICATION_TYPE":"U","NORAD_CAT_ID":45159,"ELEMENT_SET_NO":999,"REV_AT_EPOCH":28270,"BSTAR":0.0011723,"MEAN_MOTION_DOT":4.22e-6,"MEAN_MOTION_DDOT":0},{"OBJECT_NAME":"ONEWEB-0057","OBJECT_ID":"2020-008AF","EPOCH":"2025-12-04T15:57:27.563904","MEAN_MOTION":13.10368109,"ECCENTRICITY":0.0001642,"INCLINATION":87.8804,"RA_OF_ASC_NODE":75.0517,"ARG_OF_PERICENTER":111.9668,"MEAN_ANOMALY":248.1634,"EPHEMERIS_TYPE":0,"CLASSIFICATION_TYPE":"U","NORAD_CAT_ID":45160,"ELEMENT_SET_NO":999,"REV_AT_EPOCH":28287,"BSTAR":0.00016032,"MEAN_MOTION_DOT":6.9e-7,"MEAN_MOTION_DDOT":0}]
